ONEWEB-0226             
1 48793U 21045AC  24070.93846289 -.00000093  00000+0 -28201-3 0  9994
2 48793  87.8957  64.0404 0002048  69.8363 290.2987 13.15546708135459
ONEWEB-0224             
1 48794U 21045AD  24070.90201448  .00000125  00000+0  29830-3 0  9997
2 48794  87.8964  64.0649 0001139  75.7372 284.3884 13.15547001136497
ONEWEB-0233             
1 48795U 21045AE  24070.89806006  .00000137  00000+0  33064-3 0  9994
2 48795  87.8962  64.0780 0002045  81.4192 278.7170 13.15547580135398
ONEWEB-0190             
1 48796U 21045AF  24070.97016088  .00000130  00000+0  31185-3 0  9992
2 48796  87.8961  64.0260 0001809  50.2003 309.9286 13.15548131135470
ONEWEB-0236             
1 48797U 21045AG  24070.91152685  .00000075  00000+0  16495-3 0  9996
2 48797  87.8967  64.0278 0001819  85.3512 274.7826 13.15547310135355
ONEWEB-0248             
1 48798U 21045AH  24070.92420890 -.00000041  00000+0 -14325-3 0  9999
2 48798  87.8958  64.0244 0001237  68.3096 291.8166 13.15548572135517
ONEWEB-0225             
1 48799U 21045AJ  24070.94638910  .00000115  00000+0  27180-3 0  9999
2 48799  87.8962  64.0274 0001674  72.2511 287.8802 13.15547565135521
ONEWEB-0215             
1 48800U 21045AK  24070.91625019  .00003653  00000+0  96628-2 0  9997
2 48800  87.8971  64.0142 0001289  74.4414 285.6858 13.15575298136517
